[{"OBJECT_NAME":"STARLINK-30533","OBJECT_ID":"2023-156K","EPOCH":"2026-03-09T13:37:37.629696","MEAN_MOTION":15.30188896,"ECCENTRICITY":0.0001151,"INCLINATION":53.1581,"RA_OF_ASC_NODE":168.7677,"ARG_OF_PERICENTER":90.523,"MEAN_ANOMALY":269.5902,"EPHEMERIS_TYPE":0,"CLASSIFICATION_TYPE":"U","NORAD_CAT_ID":58037,"ELEMENT_SET_NO":999,"REV_AT_EPOCH":13501,"BSTAR":0.00069771,"MEAN_MOTION_DOT":0.00020354,"MEAN_MOTION_DDOT":0},{"OBJECT_NAME":"COSMOS 2588","OBJECT_ID":"2025-109A","EPOCH":"2026-03-09T19:28:59.107008","MEAN_MOTION":15.29122656,"ECCENTRICITY":0.0005019,"INCLINATION":72.9704,"RA_OF_ASC_NODE":73.5401,"ARG_OF_PERICENTER":308.678,"MEAN_ANOMALY":51.3966,"EPHEMERIS_TYPE":0,"CLASSIFICATION_TYPE":"U","NORAD_CAT_ID":64095,"ELEMENT_SET_NO":999,"REV_AT_EPOCH":4442,"BSTAR":0.00032611,"MEAN_MOTION_DOT":9.169e-5,"MEAN_MOTION_DDOT":0}]
